ALOS (DAICHI)           
1 28931U 06002A   26102.81240081  .00000790  00000+0  14027-3 0  9998
2 28931  98.1270  58.6118 0001489 114.0949 246.0413 14.69915964 78493
H-2A R/B                
1 28932U 06002B   26102.84718547  .00005997  00000+0  29509-3 0  9994
2 28932  98.2471 252.8426 0052582 125.0419 235.5761 15.17212120 99616
RESURS-DK 1             
1 29228U 06021A   26102.85131912  .00001241  00000+0  76372-4 0  9999
2 29228  69.9301 148.6463 0002366  12.4074 347.7149 15.12943001 92697
CZ-4B R/B               
1 29507U 06046C   26102.84145025  .00002684  00000+0  13639-3 0  9993
2 29507  97.5530 147.6538 0034024 147.0025 213.3341 15.17262916 65222
CZ-2C R/B               
1 31114U 07010B   26102.82381209  .00000081  00000+0  55931-4 0  9997
2 31114  98.4017 214.3978 0058801 193.8507 166.1060 14.20259225984564
COSMO-SKYMED 1          
1 31598U 07023A   26102.82814131  .00001557  00000+0  14128-3 0  9993
2 31598  97.8888 294.1411 0001597  88.3133 271.8271 14.96794724 20010
COSMOS 2428             
1 31792U 07029A   26102.51629958 -.00000105  00000+0 -30458-4 0  9997
2 31792  70.9405 132.3460 0009581 241.2677 118.7482 14.12948574968874
SL-16 R/B               
1 31793U 07029B   26102.44701166 -.00000204  00000+0 -80685-4 0  9999
2 31793  70.9728 101.4235 0002827 273.6549 238.3878 14.14841931970145
KORONAS-FOTON           
1 33504U 09003A   26102.66393699  .00010220  00000+0  22067-3 0  9993
2 33504  82.4290 240.5282 0010945  38.1408 322.0612 15.44307036950988
CZ-2C R/B               
1 37731U 11030B   26102.46440215  .00000743  00000+0  99964-4 0  9997
2 37731  97.8598  59.0675 0051093 239.6814 233.6070 14.81335734795092
H-2A R/B                
1 38341U 12025E   26102.78959117  .00002104  00000+0  19320-3 0  9991
2 38341  98.4782  72.5849 0043793 199.3911 160.5643 14.95394807753317
SHIJIAN-16 (SJ-16)      
1 39358U 13057A   26102.88441176  .00001169  00000+0  11657-3 0  9993
2 39358  74.9706 120.3503 0015671  24.0971 336.0947 14.92457931676602
SL-4 R/B                
1 39679U 14021B   26102.44225363  .00008976  00000+0  19653-3 0  9998
2 39679  51.6067 172.4674 0093431 226.3187 133.0028 15.40417357661479
ALOS-2                  
1 39766U 14029A   26102.80579712 -.00000291  00000+0 -32084-4 0  9991
2 39766  97.9190 200.9068 0001799  89.5827 270.5591 14.79472550641912
YAOGAN-29               
1 41038U 15069A   26102.86747648 -.00000241  00000+0 -22993-4 0  9995
2 41038  98.0101 131.3815 0000761 160.5831 199.5411 14.83031689560944
ASTRO-H (HITOMI)        
1 41337U 16012A   26102.80663328  .00001800  00000+0  10169-3 0  9993
2 41337  30.9982 136.3432 0009614 314.2191  45.7657 15.10220428557392
HXMT (HUIYAN)           
1 42758U 17034A   26102.67145007  .00003232  00000+0  16641-3 0  9992
2 42758  43.0135 187.6829 0030317  89.5079 270.9243 15.17914897487702
