[{"OBJECT_NAME":"ALOS (DAICHI)","OBJECT_ID":"2006-002A","EPOCH":"2026-04-12T19:29:51.429984","MEAN_MOTION":14.69915964,"ECCENTRICITY":0.0001489,"INCLINATION":98.127,"RA_OF_ASC_NODE":58.6118,"ARG_OF_PERICENTER":114.0949,"MEAN_ANOMALY":246.0413,"EPHEMERIS_TYPE":0,"CLASSIFICATION_TYPE":"U","NORAD_CAT_ID":28931,"ELEMENT_SET_NO":999,"REV_AT_EPOCH":7849,"BSTAR":0.00014027,"MEAN_MOTION_DOT":7.9e-6,"MEAN_MOTION_DDOT":0},{"OBJECT_NAME":"H-2A R/B","OBJECT_ID":"2006-002B","EPOCH":"2026-04-12T20:19:56.824608","MEAN_MOTION":15.1721212,"ECCENTRICITY":0.0052582,"INCLINATION":98.2471,"RA_OF_ASC_NODE":252.8426,"ARG_OF_PERICENTER":125.0419,"MEAN_ANOMALY":235.5761,"EPHEMERIS_TYPE":0,"CLASSIFICATION_TYPE":"U","NORAD_CAT_ID":28932,"ELEMENT_SET_NO":999,"REV_AT_EPOCH":9961,"BSTAR":0.00029509,"MEAN_MOTION_DOT":5.997e-5,"MEAN_MOTION_DDOT":0},{"OBJECT_NAME":"RESURS-DK 1","OBJECT_ID":"2006-021A","EPOCH":"2026-04-12T20:25:53.971968","MEAN_MOTION":15.12943001,"ECCENTRICITY":0.0002366,"INCLINATION":69.9301,"RA_OF_ASC_NODE":148.6463,"ARG_OF_PERICENTER":12.4074,"MEAN_ANOMALY":347.7149,"EPHEMERIS_TYPE":0,"CLASSIFICATION_TYPE":"U","NORAD_CAT_ID":29228,"ELEMENT_SET_NO":999,"REV_AT_EPOCH":9269,"BSTAR":7.6372e-5,"MEAN_MOTION_DOT":1.241e-5,"MEAN_MOTION_DDOT":0},{"OBJECT_NAME":"CZ-4B R/B","OBJECT_ID":"2006-046C","EPOCH":"2026-04-12T20:11:41.301600","MEAN_MOTION":15.17262916,"ECCENTRICITY":0.0034024,"INCLINATION":97.553,"RA_OF_ASC_NODE":147.6538,"ARG_OF_PERICENTER":147.0025,"MEAN_ANOMALY":213.3341,"EPHEMERIS_TYPE":0,"CLASSIFICATION_TYPE":"U","NORAD_CAT_ID":29507,"ELEMENT_SET_NO":999,"REV_AT_EPOCH":6522,"BSTAR":0.00013639,"MEAN_MOTION_DOT":2.684e-5,"MEAN_MOTION_DDOT":0},{"OBJECT_NAME":"CZ-2C R/B","OBJECT_ID":"2007-010B","EPOCH":"2026-04-12T19:46:17.364576","MEAN_MOTION":14.20259225,"ECCENTRICITY":0.0058801,"INCLINATION":98.4017,"RA_OF_ASC_NODE":214.3978,"ARG_OF_PERICENTER":193.8507,"MEAN_ANOMALY":166.106,"EPHEMERIS_TYPE":0,"CLASSIFICATION_TYPE":"U","NORAD_CAT_ID":31114,"ELEMENT_SET_NO":999,"REV_AT_EPOCH":98456,"BSTAR":5.5931e-5,"MEAN_MOTION_DOT":8.1e-7,"MEAN_MOTION_DDOT":0},{"OBJECT_NAME":"COSMO-SKYMED 1","OBJECT_ID":"2007-023A","EPOCH":"2026-04-12T19:52:31.409184","MEAN_MOTION":14.96794724,"ECCENTRICITY":0.0001597,"INCLINATION":97.8888,"RA_OF_ASC_NODE":294.1411,"ARG_OF_PERICENTER":88.3133,"MEAN_ANOMALY":271.8271,"EPHEMERIS_TYPE":0,"CLASSIFICATION_TYPE":"U","NORAD_CAT_ID":31598,"ELEMENT_SET_NO":999,"REV_AT_EPOCH":2001,"BSTAR":0.00014128,"MEAN_MOTION_DOT":1.557e-5,"MEAN_MOTION_DDOT":0},{"OBJECT_NAME":"COSMOS 2428","OBJECT_ID":"2007-029A","EPOCH":"2026-04-12T12:23:28.283712","MEAN_MOTION":14.12948574,"ECCENTRICITY":0.0009581,"INCLINATION":70.9405,"RA_OF_ASC_NODE":132.346,"ARG_OF_PERICENTER":241.2677,"MEAN_ANOMALY":118.7482,"EPHEMERIS_TYPE":0,"CLASSIFICATION_TYPE":"U","NORAD_CAT_ID":31792,"ELEMENT_SET_NO":999,"REV_AT_EPOCH":96887,"BSTAR":-3.0458e-5,"MEAN_MOTION_DOT":-1.05e-6,"MEAN_MOTION_DDOT":0},{"OBJECT_NAME":"SL-16 R/B","OBJECT_ID":"2007-029B","EPOCH":"2026-04-12T10:43:41.807424","MEAN_MOTION":14.14841931,"ECCENTRICITY":0.0002827,"INCLINATION":70.9728,"RA_OF_ASC_NODE":101.4235,"ARG_OF_PERICENTER":273.6549,"MEAN_ANOMALY":238.3878,"EPHEMERIS_TYPE":0,"CLASSIFICATION_TYPE":"U","NORAD_CAT_ID":31793,"ELEMENT_SET_NO":999,"REV_AT_EPOCH":97014,"BSTAR":-8.0685e-5,"MEAN_MOTION_DOT":-2.04e-6,"MEAN_MOTION_DDOT":0},{"OBJECT_NAME":"KORONAS-FOTON","OBJECT_ID":"2009-003A","EPOCH":"2026-04-12T15:56:04.155936","MEAN_MOTION":15.44307036,"ECCENTRICITY":0.0010945,"INCLINATION":82.429,"RA_OF_ASC_NODE":240.5282,"ARG_OF_PERICENTER":38.1408,"MEAN_ANOMALY":322.0612,"EPHEMERIS_TYPE":0,"CLASSIFICATION_TYPE":"U","NORAD_CAT_ID":33504,"ELEMENT_SET_NO":999,"REV_AT_EPOCH":95098,"BSTAR":0.00022067,"MEAN_MOTION_DOT":0.0001022,"MEAN_MOTION_DDOT":0},{"OBJECT_NAME":"CZ-2C R/B","OBJECT_ID":"2011-030B","EPOCH":"2026-04-12T11:08:44.345760","MEAN_MOTION":14.81335734,"ECCENTRICITY":0.0051093,"INCLINATION":97.8598,"RA_OF_ASC_NODE":59.0675,"ARG_OF_PERICENTER":239.6814,"MEAN_ANOMALY":233.607,"EPHEMERIS_TYPE":0,"CLASSIFICATION_TYPE":"U","NORAD_CAT_ID":37731,"ELEMENT_SET_NO":999,"REV_AT_EPOCH":79509,"BSTAR":9.9964e-5,"MEAN_MOTION_DOT":7.43e-6,"MEAN_MOTION_DDOT":0},{"OBJECT_NAME":"H-2A R/B","OBJECT_ID":"2012-025E","EPOCH":"2026-04-12T18:57:00.677088","MEAN_MOTION":14.95394807,"ECCENTRICITY":0.0043793,"INCLINATION":98.4782,"RA_OF_ASC_NODE":72.5849,"ARG_OF_PERICENTER":199.3911,"MEAN_ANOMALY":160.5643,"EPHEMERIS_TYPE":0,"CLASSIFICATION_TYPE":"U","NORAD_CAT_ID":38341,"ELEMENT_SET_NO":999,"REV_AT_EPOCH":75331,"BSTAR":0.0001932,"MEAN_MOTION_DOT":2.104e-5,"MEAN_MOTION_DDOT":0},{"OBJECT_NAME":"SHIJIAN-16 (SJ-16)","OBJECT_ID":"2013-057A","EPOCH":"2026-04-12T21:13:33.176064","MEAN_MOTION":14.92457931,"ECCENTRICITY":0.0015671,"INCLINATION":74.9706,"RA_OF_ASC_NODE":120.3503,"ARG_OF_PERICENTER":24.0971,"MEAN_ANOMALY":336.0947,"EPHEMERIS_TYPE":0,"CLASSIFICATION_TYPE":"U","NORAD_CAT_ID":39358,"ELEMENT_SET_NO":999,"REV_AT_EPOCH":67660,"BSTAR":0.00011657,"MEAN_MOTION_DOT":1.169e-5,"MEAN_MOTION_DDOT":0},{"OBJECT_NAME":"SL-4 R/B","OBJECT_ID":"2014-021B","EPOCH":"2026-04-12T10:36:50.713632","MEAN_MOTION":15.40417357,"ECCENTRICITY":0.0093431,"INCLINATION":51.6067,"RA_OF_ASC_NODE":172.4674,"ARG_OF_PERICENTER":226.3187,"MEAN_ANOMALY":133.0028,"EPHEMERIS_TYPE":0,"CLASSIFICATION_TYPE":"U","NORAD_CAT_ID":39679,"ELEMENT_SET_NO":999,"REV_AT_EPOCH":66147,"BSTAR":0.00019653,"MEAN_MOTION_DOT":8.976e-5,"MEAN_MOTION_DDOT":0},{"OBJECT_NAME":"ALOS-2","OBJECT_ID":"2014-029A","EPOCH":"2026-04-12T19:20:20.871168","MEAN_MOTION":14.7947255,"ECCENTRICITY":0.0001799,"INCLINATION":97.919,"RA_OF_ASC_NODE":200.9068,"ARG_OF_PERICENTER":89.5827,"MEAN_ANOMALY":270.5591,"EPHEMERIS_TYPE":0,"CLASSIFICATION_TYPE":"U","NORAD_CAT_ID":39766,"ELEMENT_SET_NO":999,"REV_AT_EPOCH":64191,"BSTAR":-3.2084e-5,"MEAN_MOTION_DOT":-2.91e-6,"MEAN_MOTION_DDOT":0},{"OBJECT_NAME":"YAOGAN-29","OBJECT_ID":"2015-069A","EPOCH":"2026-04-12T20:49:09.967872","MEAN_MOTION":14.83031689,"ECCENTRICITY":7.61e-5,"INCLINATION":98.0101,"RA_OF_ASC_NODE":131.3815,"ARG_OF_PERICENTER":160.5831,"MEAN_ANOMALY":199.5411,"EPHEMERIS_TYPE":0,"CLASSIFICATION_TYPE":"U","NORAD_CAT_ID":41038,"ELEMENT_SET_NO":999,"REV_AT_EPOCH":56094,"BSTAR":-2.2993e-5,"MEAN_MOTION_DOT":-2.41e-6,"MEAN_MOTION_DDOT":0},{"OBJECT_NAME":"ASTRO-H (HITOMI)","OBJECT_ID":"2016-012A","EPOCH":"2026-04-12T19:21:33.115392","MEAN_MOTION":15.10220428,"ECCENTRICITY":0.0009614,"INCLINATION":30.9982,"RA_OF_ASC_NODE":136.3432,"ARG_OF_PERICENTER":314.2191,"MEAN_ANOMALY":45.7657,"EPHEMERIS_TYPE":0,"CLASSIFICATION_TYPE":"U","NORAD_CAT_ID":41337,"ELEMENT_SET_NO":999,"REV_AT_EPOCH":55739,"BSTAR":0.00010169,"MEAN_MOTION_DOT":1.8e-5,"MEAN_MOTION_DDOT":0},{"OBJECT_NAME":"HXMT (HUIYAN)","OBJECT_ID":"2017-034A","EPOCH":"2026-04-12T16:06:53.286048","MEAN_MOTION":15.17914897,"ECCENTRICITY":0.0030317,"INCLINATION":43.0135,"RA_OF_ASC_NODE":187.6829,"ARG_OF_PERICENTER":89.5079,"MEAN_ANOMALY":270.9243,"EPHEMERIS_TYPE":0,"CLASSIFICATION_TYPE":"U","NORAD_CAT_ID":42758,"ELEMENT_SET_NO":999,"REV_AT_EPOCH":48770,"BSTAR":0.00016641,"MEAN_MOTION_DOT":3.232e-5,"MEAN_MOTION_DDOT":0}]
